{
    "links": {
        "self": "http://www.neowsapp.com/rest/v1/neo/3558898?api_key=iIulBulltgU6a56xZRHN4H3l9WmuAYTsLGpBGhQ2"
    },
    "id": "3558898",
    "neo_reference_id": "3558898",
    "name": "(2011 ET20)",
    "designation": "2011 ET20",
    "nasa_jpl_url": "http://ssd.jpl.nasa.gov/sbdb.cgi?sstr=3558898",
    "absolute_magnitude_h": 25.0,
    "estimated_diameter": {
        "kilometers": {
            "estimated_diameter_min": 0.02658,
            "estimated_diameter_max": 0.0594346868
        },
        "meters": {
            "estimated_diameter_min": 26.58,
            "estimated_diameter_max": 59.4346868419
        },
        "miles": {
            "estimated_diameter_min": 0.0165160412,
            "estimated_diameter_max": 0.0369309908
        },
        "feet": {
            "estimated_diameter_min": 87.2047272,
            "estimated_diameter_max": 194.9956979785
        }
    },
    "is_potentially_hazardous_asteroid": false,
    "close_approach_data": [
        {
            "close_approach_date": "2011-02-18",
            "close_approach_date_full": "2011-Feb-18 06:38",
            "epoch_date_close_approach": 1298011080000,
            "relative_velocity": {
                "kilometers_per_second": "7.7926182513",
                "kilometers_per_hour": "28053.4257045135",
                "miles_per_hour": "17431.3077662295"
            },
            "miss_distance": {
                "astronomical": "0.073342442",
                "lunar": "28.530209938",
                "kilometers": "10971873.10379854",
                "miles": "6817605.810118252"
            },
            "orbiting_body": "Earth"
        }
    ],
    "orbital_data": {
        "orbit_id": "5",
        "orbit_determination_date": "2017-04-06 08:54:13",
        "first_observation_date": "2011-03-06",
        "last_observation_date": "2011-03-08",
        "data_arc_in_days": 2,
        "observations_used": 11,
        "orbit_uncertainty": "9",
        "minimum_orbit_intersection": ".0697566",
        "jupiter_tisserand_invariant": "4.143",
        "epoch_osculation": "2455627.5",
        "eccentricity": ".3988633086958049",
        "semi_major_axis": "1.670281421211598",
        "inclination": "8.34267086174451",
        "ascending_node_longitude": "165.5769440450425",
        "orbital_period": "788.4658764518176",
        "perihelion_distance": "1.004067447094009",
        "perihelion_argument": "313.0181049713476",
        "aphelion_distance": "2.336495395329188",
        "perihelion_time": "2455585.065119522973",
        "mean_anomaly": "19.37503882917025",
        "mean_motion": ".4565828538072431",
        "equinox": "J2000",
        "orbit_class": {
            "orbit_class_type": "APO",
            "orbit_class_description": "Near-Earth asteroid orbits which cross the Earth’s orbit similar to that of 1862 Apollo",
            "orbit_class_range": "a (semi-major axis) > 1.0 AU; q (perihelion) < 1.017 AU"
        }
    },
    "is_sentry_object": false
}